TIANMU-1 13             
1 58647U 23205C   25334.86087238  .00007043  00000+0  29095-3 0  9992
2 58647  97.3637 354.7002 0006593 319.9657  40.1094 15.24293398107261
TIANMU-1 14             
1 58648U 23205D   25334.84414520  .00006644  00000+0  27471-3 0  9991
2 58648  97.3569 354.0436 0007522 324.0058  36.0672 15.24277966107264
TIANMU-1 19             
1 58660U 23208A   25334.82335787  .00009901  00000+0  37043-3 0  9998
2 58660  97.4385  85.8870 0004207 306.2008  53.8842 15.27511733107004
TIANMU-1 20             
1 58661U 23208B   25334.81913800  .00010089  00000+0  36385-3 0  9993
2 58661  97.4322  86.3188 0006609 315.2621  44.8085 15.28705051107078
TIANMU-1 21             
1 58662U 23208C   25334.83758634  .00011634  00000+0  38873-3 0  9999
2 58662  97.4370  88.1928 0006071 309.6899  50.3806 15.31158996107179
TIANMU-1 22             
1 58663U 23208D   25334.82132203  .00009453  00000+0  35622-3 0  9992
2 58663  97.4378  85.9493 0003258 341.4244  18.6876 15.27289957107016
TIANMU-1 15             
1 58700U 24004A   25334.84078705  .00007528  00000+0  30960-3 0  9998
2 58700  97.4633 156.3538 0006003 345.5188  14.5876 15.24432580105537
TIANMU-1 16             
1 58701U 24004B   25332.72308521  .00001245  00000+0  54124-4 0  9995
2 58701  97.4570 153.6495 0005468 351.9748   8.1401 15.24146454105217
