{
  "type": "FeatureCollection",
  "features": [
    {
      "type": "Feature",
      "properties": {
        "norad_id": 58647,
        "name": "TIANMU-1 13",
        "group": "weather",
        "lat": NaN,
        "lon": NaN,
        "alt_km": NaN,
        "timestamp": "2025-12-01T02:46:55.349967+00:00",
        "meta": {
          "OBJECT_NAME": "TIANMU-1 13",
          "OBJECT_ID": "2023-205C",
          "EPOCH": "2025-11-30T20:39:39.373632",
          "MEAN_MOTION": 15.24293398,
          "ECCENTRICITY": 0.0006593,
          "INCLINATION": 97.3637,
          "RA_OF_ASC_NODE": 354.7002,
          "ARG_OF_PERICENTER": 319.9657,
          "MEAN_ANOMALY": 40.1094,
          "EPHEMERIS_TYPE": 0,
          "CLASSIFICATION_TYPE": "U",
          "NORAD_CAT_ID": 58647,
          "ELEMENT_SET_NO": 999,
          "REV_AT_EPOCH": 10726,
          "BSTAR": 0.00029095,
          "MEAN_MOTION_DOT": 7.043e-05,
          "MEAN_MOTION_DDOT": 0
        }
      },
      "geometry": {
        "type": "Point",
        "coordinates": [
          NaN,
          NaN
        ]
      }
    },
    {
      "type": "Feature",
      "properties": {
        "norad_id": 58648,
        "name": "TIANMU-1 14",
        "group": "weather",
        "lat": NaN,
        "lon": NaN,
        "alt_km": NaN,
        "timestamp": "2025-12-01T02:46:55.349984+00:00",
        "meta": {
          "OBJECT_NAME": "TIANMU-1 14",
          "OBJECT_ID": "2023-205D",
          "EPOCH": "2025-11-30T20:15:34.145280",
          "MEAN_MOTION": 15.24277966,
          "ECCENTRICITY": 0.0007522,
          "INCLINATION": 97.3569,
          "RA_OF_ASC_NODE": 354.0436,
          "ARG_OF_PERICENTER": 324.0058,
          "MEAN_ANOMALY": 36.0672,
          "EPHEMERIS_TYPE": 0,
          "CLASSIFICATION_TYPE": "U",
          "NORAD_CAT_ID": 58648,
          "ELEMENT_SET_NO": 999,
          "REV_AT_EPOCH": 10726,
          "BSTAR": 0.00027471,
          "MEAN_MOTION_DOT": 6.644e-05,
          "MEAN_MOTION_DDOT": 0
        }
      },
      "geometry": {
        "type": "Point",
        "coordinates": [
          NaN,
          NaN
        ]
      }
    },
    {
      "type": "Feature",
      "properties": {
        "norad_id": 58660,
        "name": "TIANMU-1 19",
        "group": "weather",
        "lat": NaN,
        "lon": NaN,
        "alt_km": NaN,
        "timestamp": "2025-12-01T02:46:55.350000+00:00",
        "meta": {
          "OBJECT_NAME": "TIANMU-1 19",
          "OBJECT_ID": "2023-208A",
          "EPOCH": "2025-11-30T19:45:38.119968",
          "MEAN_MOTION": 15.27511733,
          "ECCENTRICITY": 0.0004207,
          "INCLINATION": 97.4385,
          "RA_OF_ASC_NODE": 85.887,
          "ARG_OF_PERICENTER": 306.2008,
          "MEAN_ANOMALY": 53.8842,
          "EPHEMERIS_TYPE": 0,
          "CLASSIFICATION_TYPE": "U",
          "NORAD_CAT_ID": 58660,
          "ELEMENT_SET_NO": 999,
          "REV_AT_EPOCH": 10700,
          "BSTAR": 0.00037043,
          "MEAN_MOTION_DOT": 9.901e-05,
          "MEAN_MOTION_DDOT": 0
        }
      },
      "geometry": {
        "type": "Point",
        "coordinates": [
          NaN,
          NaN
        ]
      }
    },
    {
      "type": "Feature",
      "properties": {
        "norad_id": 58661,
        "name": "TIANMU-1 20",
        "group": "weather",
        "lat": NaN,
        "lon": NaN,
        "alt_km": NaN,
        "timestamp": "2025-12-01T02:46:55.350017+00:00",
        "meta": {
          "OBJECT_NAME": "TIANMU-1 20",
          "OBJECT_ID": "2023-208B",
          "EPOCH": "2025-11-30T19:39:33.523200",
          "MEAN_MOTION": 15.28705051,
          "ECCENTRICITY": 0.0006609,
          "INCLINATION": 97.4322,
          "RA_OF_ASC_NODE": 86.3188,
          "ARG_OF_PERICENTER": 315.2621,
          "MEAN_ANOMALY": 44.8085,
          "EPHEMERIS_TYPE": 0,
          "CLASSIFICATION_TYPE": "U",
          "NORAD_CAT_ID": 58661,
          "ELEMENT_SET_NO": 999,
          "REV_AT_EPOCH": 10707,
          "BSTAR": 0.00036385,
          "MEAN_MOTION_DOT": 0.00010089,
          "MEAN_MOTION_DDOT": 0
        }
      },
      "geometry": {
        "type": "Point",
        "coordinates": [
          NaN,
          NaN
        ]
      }
    },
    {
      "type": "Feature",
      "properties": {
        "norad_id": 58662,
        "name": "TIANMU-1 21",
        "group": "weather",
        "lat": NaN,
        "lon": NaN,
        "alt_km": NaN,
        "timestamp": "2025-12-01T02:46:55.350033+00:00",
        "meta": {
          "OBJECT_NAME": "TIANMU-1 21",
          "OBJECT_ID": "2023-208C",
          "EPOCH": "2025-11-30T20:06:07.459776",
          "MEAN_MOTION": 15.31158996,
          "ECCENTRICITY": 0.0006071,
          "INCLINATION": 97.437,
          "RA_OF_ASC_NODE": 88.1928,
          "ARG_OF_PERICENTER": 309.6899,
          "MEAN_ANOMALY": 50.3806,
          "EPHEMERIS_TYPE": 0,
          "CLASSIFICATION_TYPE": "U",
          "NORAD_CAT_ID": 58662,
          "ELEMENT_SET_NO": 999,
          "REV_AT_EPOCH": 10717,
          "BSTAR": 0.00038873,
          "MEAN_MOTION_DOT": 0.00011634,
          "MEAN_MOTION_DDOT": 0
        }
      },
      "geometry": {
        "type": "Point",
        "coordinates": [
          NaN,
          NaN
        ]
      }
    },
    {
      "type": "Feature",
      "properties": {
        "norad_id": 58663,
        "name": "TIANMU-1 22",
        "group": "weather",
        "lat": NaN,
        "lon": NaN,
        "alt_km": NaN,
        "timestamp": "2025-12-01T02:46:55.350049+00:00",
        "meta": {
          "OBJECT_NAME": "TIANMU-1 22",
          "OBJECT_ID": "2023-208D",
          "EPOCH": "2025-11-30T19:42:42.223392",
          "MEAN_MOTION": 15.27289957,
          "ECCENTRICITY": 0.0003258,
          "INCLINATION": 97.4378,
          "RA_OF_ASC_NODE": 85.9493,
          "ARG_OF_PERICENTER": 341.4244,
          "MEAN_ANOMALY": 18.6876,
          "EPHEMERIS_TYPE": 0,
          "CLASSIFICATION_TYPE": "U",
          "NORAD_CAT_ID": 58663,
          "ELEMENT_SET_NO": 999,
          "REV_AT_EPOCH": 10701,
          "BSTAR": 0.00035622,
          "MEAN_MOTION_DOT": 9.453e-05,
          "MEAN_MOTION_DDOT": 0
        }
      },
      "geometry": {
        "type": "Point",
        "coordinates": [
          NaN,
          NaN
        ]
      }
    },
    {
      "type": "Feature",
      "properties": {
        "norad_id": 58700,
        "name": "TIANMU-1 15",
        "group": "weather",
        "lat": NaN,
        "lon": NaN,
        "alt_km": NaN,
        "timestamp": "2025-12-01T02:46:55.350066+00:00",
        "meta": {
          "OBJECT_NAME": "TIANMU-1 15",
          "OBJECT_ID": "2024-004A",
          "EPOCH": "2025-11-30T20:10:44.001120",
          "MEAN_MOTION": 15.2443258,
          "ECCENTRICITY": 0.0006003,
          "INCLINATION": 97.4633,
          "RA_OF_ASC_NODE": 156.3538,
          "ARG_OF_PERICENTER": 345.5188,
          "MEAN_ANOMALY": 14.5876,
          "EPHEMERIS_TYPE": 0,
          "CLASSIFICATION_TYPE": "U",
          "NORAD_CAT_ID": 58700,
          "ELEMENT_SET_NO": 999,
          "REV_AT_EPOCH": 10553,
          "BSTAR": 0.0003096,
          "MEAN_MOTION_DOT": 7.528e-05,
          "MEAN_MOTION_DDOT": 0
        }
      },
      "geometry": {
        "type": "Point",
        "coordinates": [
          NaN,
          NaN
        ]
      }
    },
    {
      "type": "Feature",
      "properties": {
        "norad_id": 58701,
        "name": "TIANMU-1 16",
        "group": "weather",
        "lat": NaN,
        "lon": NaN,
        "alt_km": NaN,
        "timestamp": "2025-12-01T02:46:55.350082+00:00",
        "meta": {
          "OBJECT_NAME": "TIANMU-1 16",
          "OBJECT_ID": "2024-004B",
          "EPOCH": "2025-11-28T17:21:14.562144",
          "MEAN_MOTION": 15.24146454,
          "ECCENTRICITY": 0.00054689,
          "INCLINATION": 97.457,
          "RA_OF_ASC_NODE": 153.6495,
          "ARG_OF_PERICENTER": 351.9748,
          "MEAN_ANOMALY": 8.1401,
          "EPHEMERIS_TYPE": 0,
          "CLASSIFICATION_TYPE": "U",
          "NORAD_CAT_ID": 58701,
          "ELEMENT_SET_NO": 999,
          "REV_AT_EPOCH": 10521,
          "BSTAR": 5.4123761e-05,
          "MEAN_MOTION_DOT": 1.245e-05,
          "MEAN_MOTION_DDOT": 0
        }
      },
      "geometry": {
        "type": "Point",
        "coordinates": [
          NaN,
          NaN
        ]
      }
    }
  ]
}